     2              NAVIGATION DATA                         RINEX VERSION / TYPE
CCRINEXN V1.6.0 UX  CDDIS               24-DEC-16 17:31     PGM / RUN BY / DATE 
IGS BROADCAST EPHEMERIS FILE                                COMMENT             
    0.8382D-08 -0.1490D-07 -0.5960D-07  0.1192D-06          ION ALPHA           
    0.9421D+05 -0.1311D+06 -0.1311D+06  0.8520D+06          ION BETA            
    0.931322574615D-09-0.266453525910D-14   589824     1928 DELTA-UTC: A0,A1,T,W
    17                                                      LEAP SECONDS        
                                                            END OF HEADER       
29 16 12 23 10  0  0.0 0.637253280729D-03-0.204636307899D-11 0.000000000000D+00
    0.400000000000D+02-0.304687500000D+02 0.404016819999D-08 0.259806263345D+00
   -0.149942934513D-05 0.542861875147D-03 0.907294452190D-05 0.515370417976D+04
    0.468000000000D+06 0.130385160446D-07-0.632872824962D+00-0.391155481338D-07
    0.979749100677D+00 0.218187500000D+03-0.205535545792D+00-0.777353825754D-08
    0.224295054751D-09 0.100000000000D+01 0.192800000000D+04 0.000000000000D+00
    0.200000000000D+01 0.000000000000D+00-0.102445483208D-07 0.400000000000D+02
    0.460800000000D+06 0.000000000000D+00 0.000000000000D+00 0.000000000000D+00
30 16 12 23 10  0  0.0 0.159520190209D-03 0.568434188608D-12 0.000000000000D+00
    0.300000000000D+01 0.570625000000D+02 0.488020328006D-08 0.148381432211D+01
    0.301003456116D-05 0.235505611636D-02 0.445172190666D-05 0.515373435593D+04
    0.468000000000D+06-0.614672899246D-07-0.272084679174D+01 0.409781932831D-07
    0.950101667251D+00 0.287968750000D+03 0.312443887411D+01-0.839070664947D-08
    0.778603860548D-10 0.100000000000D+01 0.192800000000D+04 0.000000000000D+00
    0.200000000000D+01 0.000000000000D+00 0.372529029846D-08 0.300000000000D+01
    0.460800000000D+06 0.400000000000D+01 0.000000000000D+00 0.000000000000D+00
31 16 12 23 10  0  0.0 0.229422003031D-03-0.216004991671D-11 0.000000000000D+00
    0.360000000000D+02 0.608125000000D+02 0.433268047353D-08 0.131877995447D+01
    0.327453017235D-05 0.854646426160D-02 0.435486435890D-05 0.515361969566D+04
    0.468000000000D+06 0.100582838059D-06-0.275172685946D+01 0.134110450745D-06
    0.969136152274D+00 0.296156250000D+03-0.327028797376D+00-0.808783689087D-08
    0.282154610015D-10 0.100000000000D+01 0.192800000000D+04 0.000000000000D+00
    0.200000000000D+01 0.000000000000D+00-0.135041773319D-07 0.360000000000D+02
    0.460800000000D+06 0.400000000000D+01 0.000000000000D+00 0.000000000000D+00
32 16 12 23 10  0  0.0-0.252134632319D-03-0.155750967679D-10 0.000000000000D+00
    0.350000000000D+02 0.450625000000D+02 0.437375361296D-08-0.121581770856D+01
    0.232458114624D-05 0.608582282439D-03 0.101067125797D-04 0.515367997551D+04
    0.468000000000D+06 0.558793544769D-07 0.244550768702D+01-0.800937414169D-07
    0.958618132625D+00 0.188281250000D+03-0.270637925316D+01-0.786639909567D-08
   -0.167149819604D-09 0.100000000000D+01 0.192800000000D+04 0.000000000000D+00
    0.200000000000D+01 0.000000000000D+00 0.465661287308D-09 0.350000000000D+02
    0.460800000000D+06 0.400000000000D+01 0.000000000000D+00 0.000000000000D+00
17 16 12 23 11 59 28.0-0.196311157197D-03 0.102318153950D-11 0.000000000000D+00
    0.800000000000D+01-0.230312500000D+02 0.410624247005D-08-0.105381225281D+01
   -0.962987542152D-06 0.115795121528D-01 0.970438122749D-05 0.515355595779D+04
    0.475168000000D+06-0.447034835815D-07-0.642870737735D+00 0.286847352982D-06
    0.978694333816D+00 0.203593750000D+03-0.189073555691D+01-0.789925760721D-08
    0.253224833545D-09 0.100000000000D+01 0.192800000000D+04 0.000000000000D+00
    0.200000000000D+01 0.000000000000D+00-0.107102096081D-07 0.800000000000D+01
    0.468000000000D+06 0.400000000000D+01 0.000000000000D+00 0.000000000000D+00
28 16 12 23 11 59 28.0 0.576523132622D-03 0.284217094304D-11 0.000000000000D+00
    0.400000000000D+01-0.456875000000D+02 0.396909390012D-08-0.112263035795D+00
   -0.246427953243D-05 0.201264512725D-01 0.659748911858D-05 0.515363801384D+04
    0.475168000000D+06-0.324100255966D-06-0.165758349419D+01 0.782310962677D-07
    0.988916813292D+00 0.271000000000D+03-0.158952713489D+01-0.823891461244D-08
   -0.147148986489D-09 0.100000000000D+01 0.192800000000D+04 0.000000000000D+00
    0.200000000000D+01 0.000000000000D+00-0.111758708954D-07 0.400000000000D+01
    0.470736000000D+06 0.400000000000D+01 0.000000000000D+00 0.000000000000D+00
 8 16 12 23 11 59 44.0-0.434201210737D-04-0.136424205266D-11 0.000000000000D+00
    0.000000000000D+00-0.250937500000D+02 0.431410827135D-08-0.243780221076D+00
   -0.146962702274D-05 0.227035756689D-02 0.910647213459D-05 0.515356197929D+04
    0.475184000000D+06-0.558793544769D-07-0.698327132837D+00-0.614672899246D-07
    0.965482261286D+00 0.205906250000D+03-0.963602900169D+00-0.794890253227D-08
    0.181078971237D-09 0.100000000000D+01 0.192800000000D+04 0.000000000000D+00
    0.200000000000D+01 0.000000000000D+00 0.512227416039D-08 0.000000000000D+00
    0.469020000000D+06 0.400000000000D+01 0.000000000000D+00 0.000000000000D+00
11 16 12 23 11 59 44.0-0.670504756272D-03 0.272848410532D-11 0.000000000000D+00
    0.100000000000D+02 0.768750000000D+01 0.594346185476D-08 0.259429988673D+01
    0.303611159325D-06 0.166727252072D-01 0.660493969917D-05 0.515369024849D+04
    0.475184000000D+06 0.214204192162D-06-0.282791573690D-01-0.856816768646D-07
    0.899381020315D+00 0.215500000000D+03 0.160814550018D+01-0.845106630655D-08
    0.291083553370D-09 0.100000000000D+01 0.192800000000D+04 0.000000000000D+00
    0.200000000000D+01 0.000000000000D+00-0.121071934700D-07 0.100000000000D+02
    0.474120000000D+06 0.400000000000D+01 0.000000000000D+00 0.000000000000D+00
18 16 12 23 11 59 44.0 0.586259644479D-03 0.295585778076D-11 0.000000000000D+00
    0.160000000000D+02-0.333125000000D+02 0.574381076035D-08 0.550739872915D+00
   -0.165216624737D-05 0.173620971618D-01 0.716373324394D-05 0.515372956848D+04
    0.475184000000D+06-0.236555933952D-06 0.136484462470D+01-0.186264514923D-07
    0.924873109546D+00 0.228312500000D+03-0.184368156199D+01-0.891572859984D-08
   -0.382515935593D-09 0.100000000000D+01 0.192800000000D+04 0.000000000000D+00
    0.200000000000D+01 0.000000000000D+00-0.111758708954D-07 0.160000000000D+02
    0.468000000000D+06 0.000000000000D+00 0.000000000000D+00 0.000000000000D+00
19 16 12 23 11 59 44.0-0.517450738698D-03 0.795807864051D-12 0.000000000000D+00
    0.170000000000D+02-0.291875000000D+02 0.407088385437D-08 0.213802893186D+01
   -0.160932540894D-05 0.102212084457D-01 0.988878309727D-05 0.515364513588D+04
    0.475184000000D+06-0.122934579849D-06-0.594660644014D+00-0.171363353729D-06
    0.975907947397D+00 0.197312500000D+03 0.899075744422D+00-0.771532137410D-08
    0.289654922433D-09 0.100000000000D+01 0.192800000000D+04 0.000000000000D+00
    0.200000000000D+01 0.000000000000D+00-0.149011611938D-07 0.170000000000D+02
    0.473790000000D+06 0.400000000000D+01 0.000000000000D+00 0.000000000000D+00
 1 16 12 23 12  0  0.0 0.445470213890D-04 0.125055521494D-11 0.000000000000D+00
    0.118000000000D+03-0.312500000000D+01 0.464519349095D-08-0.311131995435D+01
   -0.197440385819D-06 0.607297581155D-02 0.645034015179D-05 0.515369203377D+04
    0.475200000000D+06-0.577419996262D-07 0.363277262425D+00-0.109896063805D-06
    0.966304898158D+00 0.258468750000D+03 0.558180857970D+00-0.799140430264D-08
    0.283226083218D-09 0.100000000000D+01 0.192800000000D+04 0.000000000000D+00
    0.290000000000D+01 0.000000000000D+00 0.512227416039D-08 0.118000000000D+03
    0.468000000000D+06 0.400000000000D+01 0.000000000000D+00 0.000000000000D+00
 2 16 12 23 12  0  0.0 0.505872070789D-03-0.625277607469D-11 0.000000000000D+00
    0.690000000000D+02-0.568750000000D+01 0.509164065870D-08-0.265758597592D+01
   -0.279396772385D-06 0.163305491442D-01 0.630691647530D-05 0.515369669914D+04
    0.475200000000D+06 0.271946191788D-06 0.313236437909D+00-0.126659870148D-06
    0.945188285720D+00 0.245906250000D+03-0.205160941918D+01-0.809783730743D-08
    0.411088552060D-09 0.100000000000D+01 0.192800000000D+04 0.000000000000D+00
    0.200000000000D+01 0.000000000000D+00-0.200234353542D-07 0.690000000000D+02
    0.468000000000D+06 0.400000000000D+01 0.000000000000D+00 0.000000000000D+00
 3 16 12 23 12  0  0.0-0.103702303022D-03-0.136424205266D-11 0.000000000000D+00
    0.540000000000D+02-0.264062500000D+02 0.471948229967D-08 0.183505251922D+01
   -0.144913792610D-05 0.411655753851D-03 0.767409801483D-05 0.515355222321D+04
    0.475200000000D+06-0.335276126862D-07 0.140523288166D+01 0.316649675369D-07
    0.959133321170D+00 0.228937500000D+03 0.839795698393D+00-0.804390648956D-08
   -0.277154401736D-09 0.100000000000D+01 0.192800000000D+04 0.000000000000D+00
    0.290000000000D+01 0.000000000000D+00 0.186264514923D-08 0.540000000000D+02
    0.468000000000D+06 0.400000000000D+01 0.000000000000D+00 0.000000000000D+00
 4 16 12 23 12  0  0.0 0.772392377257D-05-0.118234311230D-10 0.000000000000D+00
    0.410000000000D+02-0.250000000000D+00 0.507342567957D-08 0.291373524397D+01
   -0.108033418655D-06 0.131931973156D-01 0.602751970291D-05 0.515369320869D+04
    0.475200000000D+06 0.100582838059D-06 0.327791303926D+00-0.208616256714D-06
    0.944363902124D+00 0.251281250000D+03 0.120650098749D+01-0.811498068742D-08
    0.259653659684D-09 0.100000000000D+01 0.192800000000D+04 0.000000000000D+00
    0.200000000000D+01 0.100000000000D+01-0.651925802231D-08 0.410000000000D+02
    0.474270000000D+06 0.000000000000D+00 0.000000000000D+00 0.000000000000D+00
